[{"OBJECT_NAME":"CELESTIS-17 & SHERPA-FX1","OBJECT_ID":"2021-006CB","EPOCH":"2026-03-09T15:26:05.078112","MEAN_MOTION":15.30994801,"ECCENTRICITY":0.000663,"INCLINATION":97.2397,"RA_OF_ASC_NODE":112.1052,"ARG_OF_PERICENTER":178.1385,"MEAN_ANOMALY":181.9882,"EPHEMERIS_TYPE":0,"CLASSIFICATION_TYPE":"U","NORAD_CAT_ID":47486,"ELEMENT_SET_NO":999,"REV_AT_EPOCH":28406,"BSTAR":0.00024301,"MEAN_MOTION_DOT":7.207e-5,"MEAN_MOTION_DDOT":0},{"OBJECT_NAME":"STARLINK-31449","OBJECT_ID":"2024-031B","EPOCH":"2026-03-09T20:36:46.108800","MEAN_MOTION":15.30190507,"ECCENTRICITY":0.00012334,"INCLINATION":53.1608,"RA_OF_ASC_NODE":295.5906,"ARG_OF_PERICENTER":92.1734,"MEAN_ANOMALY":267.9408,"EPHEMERIS_TYPE":0,"CLASSIFICATION_TYPE":"U","NORAD_CAT_ID":58966,"ELEMENT_SET_NO":999,"REV_AT_EPOCH":11656,"BSTAR":3.3230852e-5,"MEAN_MOTION_DOT":6.25e-6,"MEAN_MOTION_DDOT":0}]
